0 IRIDIUM 33 DEB
1 36487U 97051WD  13281.41821403  .00005024  00000-0  30152-2 0  3165
2 36487 086.3852 174.9514 0204468 297.4834 060.5625 13.96933844202125
0 IRIDIUM 33 DEB
1 36487U 97051WD  13282.99402939  .00004989  00000-0  29951-2 0  3173
2 36487 086.3858 174.3301 0204039 292.6522 065.3021 13.96948774202349
0 IRIDIUM 33 DEB
1 36487U 97051WD  13283.99681986  .00004954  00000-0  29738-2 0  3181
2 36487 086.3850 173.9339 0203976 289.5740 068.3476 13.96957788202480
0 IRIDIUM 33 DEB
1 36487U 97051WD  13287.00514746  .00004812  00000-0  28888-2 0  3207
2 36487 086.3831 172.7449 0203710 280.2393 077.5770 13.96984267202904
0 IRIDIUM 33 DEB
1 36487U 97051WD  13289.01067283  .00004728  00000-0  28384-2 0  3217
2 36487 086.3836 171.9539 0203455 273.8535 083.9280 13.97001724203189
0 IRIDIUM 33 DEB
1 36487U 97051WD  13290.37155554  .00004697  00000-0  28204-2 0  3224
2 36487 086.3832 171.4147 0203090 269.6056 088.1828 13.97013859203379
0 IRIDIUM 33 DEB
1 36487U 97051WD  13291.37430289  .00004689  00000-0  28151-2 0  3239
2 36487 086.3808 171.0182 0203151 266.6684 091.1183 13.97023122203517
0 IRIDIUM 33 DEB
1 36487U 97051WD  13293.37978181  .00004668  00000-0  28016-2 0  3247
2 36487 086.3805 170.2237 0203062 260.4634 097.3529 13.97041524203792
0 IRIDIUM 33 DEB
1 36487U 97051WD  13294.38251326  .00004656  00000-0  27943-2 0  3250
2 36487 086.3806 169.8261 0203010 257.2878 100.5544 13.97050655203936
0 IRIDIUM 33 DEB
1 36487U 97051WD  13295.38523910  .00004654  00000-0  27928-2 0  3264
2 36487 086.3791 169.4296 0202942 254.2391 103.6269 13.97059812204071
